STARLINK-34735          
1 65072U 25165S   26160.54659071 -.00040623  00000+0 -28325-2 0  9999
2 65072  97.3887 237.0475 0003384 102.1471 258.0136 15.05580132 48610
STARLINK-34781          
1 65073U 25165T   26160.45519410  .00002146  00000+0  15264-3 0  9997
2 65073  97.3830 237.0177 0000930 178.3999 181.7232 15.05655560 48608
STARLINK-34780          
1 65074U 25165U   26160.50225628 -.00000519  00000+0 -31977-4 0  9993
2 65074  97.3857 236.9552 0003695 159.6027 200.5349 15.05656816 48602
STARLINK-34771          
1 65078U 25167A   26160.17970241  .00018424  00000+0  63230-3 0  9998
2 65078  53.1608 319.1769 0001107  52.2898 307.8204 15.30217696 47522
STARLINK-34634          
1 65079U 25167B   26160.17082276  .00037304  00000+0  11093-2 0  9998
2 65079  53.1615 318.4128 0001285  87.7306 272.3844 15.34410995 47534
STARLINK-34267          
1 65080U 25167C   26160.17291952  .00027589  00000+0  82444-3 0  9996
2 65080  53.1609 318.4225 0001164  79.0630 281.0504 15.34408536 48750
STARLINK-34561          
1 65081U 25167D   26160.17229285  .00021781  00000+0  74486-3 0  9992
2 65081  53.1606 319.1276 0001234  80.4625 279.6516 15.30221584 48770
STARLINK-34626          
1 65082U 25167E   26160.58337963  .00007306  00000+0  13920-3 0  9994
2 65082  53.1590 315.5474 0001371  72.3914 174.9092 15.49330964  5756
STARLINK-34247          
1 65083U 25167F   26159.72882988  .00022040  00000+0  75366-3 0  9995
2 65083  53.1596 321.3380 0001139  88.5403 271.5729 15.30216763 47452
STARLINK-34601          
1 65084U 25167G   26160.58337963  .00003837  00000+0  77026-4 0  9999
2 65084  53.1591 315.7279 0001231  86.8454  26.6161 15.49301512  5902
STARLINK-34822          
1 65086U 25167J   26159.73156551  .00035173  00000+0  11924-2 0  9999
2 65086  53.1605 324.1502 0001184  77.5812 282.5322 15.30243893 47416
STARLINK-34686          
1 65087U 25167K   26160.18561507  .00029992  00000+0  10203-2 0  9993
2 65087  53.1608 322.0041 0001294  65.6571 294.4565 15.30210491 47483
STARLINK-34594          
1 65088U 25167L   26160.18244713  .00020664  00000+0  70773-3 0  9997
2 65088  53.1591 321.9832 0001344  77.6862 282.4289 15.30206505 47484
STARLINK-34665          
1 65089U 25167M   26160.17928427  .00017523  00000+0  60215-3 0  9998
2 65089  53.1612 321.9653 0001615  69.8453 290.2721 15.30211598 47486
STARLINK-34673          
1 65090U 25167N   26160.17610870  .00028186  00000+0  95977-3 0  9990
2 65090  53.1617 321.9434 0001506 297.7034  62.3813 15.30212867 47486
STARLINK-34648          
1 65091U 25167P   26160.33336806  .03020097  00000+0  61686-1 0  9997
2 65091  53.1595 317.4960 0001734  92.1787 135.1985 15.41868708  5915
STARLINK-34640          
1 65092U 25167Q   26160.17189493  .00019386  00000+0  66484-3 0  9997
2 65092  53.1623 321.9116 0000948  85.7847 274.3262 15.30205259 47488
STARLINK-34266          
1 65093U 25167R   26160.58337963  .02235287  00000+0  50627-1 0  9992
2 65093  53.1598 316.3676 0001368  71.4544  78.1881 15.39225146  5906
STARLINK-34769          
1 65094U 25167S   26160.58337963  .02686719  00000+0  50845-1 0  9995
2 65094  53.1595 316.3108 0001629  70.5440 106.9822 15.44576824  5902
STARLINK-34768          
1 65095U 25167T   26160.58337963 -.00007240  00000+0 -12214-3 0  9992
2 65095  53.1594 315.9275 0001190  71.7881 299.5265 15.49332220  5856
STARLINK-34759          
1 65096U 25167U   26160.58337963 -.00006785  00000+0 -11394-3 0  9994
2 65096  53.1594 315.9055 0001082  69.0007 313.1673 15.49331680  5904
STARLINK-34741          
1 65097U 25167V   26159.91853236  .00053075  00000+0  95525-3 0  9996
2 65097  53.1597 318.9085 0001243 110.7305 249.3837 15.49327580 47506
STARLINK-34764          
1 65098U 25167W   26160.17137201  .00020818  00000+0  62548-3 0  9992
2 65098  53.1626 320.4944 0001772  74.6549 285.4649 15.34404387 47504
STARLINK-34815          
1 65099U 25167X   26160.16506042  .00030031  00000+0  89637-3 0  9991
2 65099  53.1611 320.4547 0001446  66.8272 293.2883 15.34400727 47503
STARLINK-34814          
1 65100U 25167Y   26159.72804983  .00024771  00000+0  74169-3 0  9997
2 65100  53.1604 322.7001 0001789  99.2640 260.8565 15.34406702 47435
STARLINK-34285          
1 65101U 25167Z   26160.13989663  .00034715  00000+0  10339-2 0  9991
2 65101  53.1591 321.0039 0001168  75.6385 284.4747 15.34399135 47490
STARLINK-34857          
1 65102U 25167AA  26160.52380899 -.00307054  00000+0 -61865-2 0  9992
2 65102  53.1592 315.5742 0000218 314.6670  45.4321 15.47136081 47596
STARLINK-34887          
1 65103U 25167AB  26160.14620647  .00034827  00000+0  10364-2 0  9990
2 65103  53.1590 321.0413 0000559  54.7639 305.3416 15.34422659 47494
STARLINK-34481          
1 65104U 25167AC  26160.58337963  .00006038  00000+0  11659-3 0  9997
2 65104  53.1587 315.2523 0001109  99.1894 251.8222 15.49296747  5853
STARLINK-34545          
1 65105U 25167AD  26160.13427092  .00077793  00000+0  13891-2 0  9997
2 65105  53.1599 317.4110 0001510 247.9744 112.1105 15.49385515 47549
