OBJECT_NAME,OBJECT_ID,EPOCH,MEAN_MOTION,ECCENTRICITY,INCLINATION,RA_OF_ASC_NODE,ARG_OF_PERICENTER,MEAN_ANOMALY,EPHEMERIS_TYPE,CLASSIFICATION_TYPE,NORAD_CAT_ID,ELEMENT_SET_NO,REV_AT_EPOCH,BSTAR,MEAN_MOTION_DOT,MEAN_MOTION_DDOT
STARLINK-34735,2025-165S,2026-06-09T13:07:05.437344,15.05580132,.00033846,97.3887,237.0475,102.1471,258.0136,0,U,65072,999,4861,-.28324871E-2,-.40623E-3,0
STARLINK-34781,2025-165T,2026-06-09T10:55:28.770240,15.05655560,.00009308,97.3830,237.0177,178.3999,181.7232,0,U,65073,999,4860,.15264116E-3,.2146E-4,0
STARLINK-34780,2025-165U,2026-06-09T12:03:14.942592,15.05656816,.00036956,97.3857,236.9552,159.6027,200.5349,0,U,65074,999,4860,-.31976622E-4,-.519E-5,0
STARLINK-34771,2025-167A,2026-06-09T04:18:46.288224,15.30217696,.00011078,53.1608,319.1769,52.2898,307.8204,0,U,65078,999,4752,.6322966E-3,.18424E-3,0
STARLINK-34634,2025-167B,2026-06-09T04:05:59.086464,15.34410995,.00012854,53.1615,318.4128,87.7306,272.3844,0,U,65079,999,4753,.11093244E-2,.37304E-3,0
STARLINK-34267,2025-167C,2026-06-09T04:09:00.246528,15.34408536,.00011649,53.1609,318.4225,79.0630,281.0504,0,U,65080,999,4875,.82443967E-3,.27589E-3,0
STARLINK-34561,2025-167D,2026-06-09T04:08:06.102240,15.30221584,.00012343,53.1606,319.1276,80.4625,279.6516,0,U,65081,999,4877,.74485757E-3,.21781E-3,0
STARLINK-34626,2025-167E,2026-06-09T14:00:04.000032,15.49330964,.00013716,53.1590,315.5474,72.3914,174.9092,0,U,65082,999,575,.13919768E-3,.7306E-4,0
STARLINK-34247,2025-167F,2026-06-08T17:29:30.901632,15.30216763,.00011399,53.1596,321.3380,88.5403,271.5729,0,U,65083,999,4745,.75365987E-3,.2204E-3,0
STARLINK-34601,2025-167G,2026-06-09T14:00:04.000032,15.49301512,.00012316,53.1591,315.7279,86.8454,26.6161,0,U,65084,999,590,.77025899E-4,.3837E-4,0
STARLINK-34822,2025-167J,2026-06-08T17:33:27.260064,15.30243893,.00011849,53.1605,324.1502,77.5812,282.5322,0,U,65086,999,4741,.11924339E-2,.35173E-3,0
STARLINK-34686,2025-167K,2026-06-09T04:27:17.142048,15.30210491,.0001294,53.1608,322.0041,65.6571,294.4565,0,U,65087,999,4748,.10203E-2,.29992E-3,0
STARLINK-34594,2025-167L,2026-06-09T04:22:43.432032,15.30206505,.0001344,53.1591,321.9832,77.6862,282.4289,0,U,65088,999,4748,.70773E-3,.20664E-3,0
STARLINK-34665,2025-167M,2026-06-09T04:18:10.160928,15.30211598,.00016155,53.1612,321.9653,69.8453,290.2721,0,U,65089,999,4748,.60214691E-3,.17523E-3,0
STARLINK-34673,2025-167N,2026-06-09T04:13:35.791680,15.30212867,.00015066,53.1617,321.9434,297.7034,62.3813,0,U,65090,999,4748,.95976782E-3,.28186E-3,0
STARLINK-34648,2025-167P,2026-06-09T08:00:03.000384,15.41868708,.00017347,53.1595,317.4960,92.1787,135.1985,0,U,65091,999,591,.6168551E-1,.3020097E-1,0
STARLINK-34640,2025-167Q,2026-06-09T04:07:31.721952,15.30205259,.00009484,53.1623,321.9116,85.7847,274.3262,0,U,65092,999,4748,.66484303E-3,.19386E-3,0
STARLINK-34266,2025-167R,2026-06-09T14:00:04.000032,15.39225146,.00013684,53.1598,316.3676,71.4544,78.1881,0,U,65093,999,590,.5062695E-1,.2235287E-1,0
STARLINK-34769,2025-167S,2026-06-09T14:00:04.000032,15.44576824,.00016292,53.1595,316.3108,70.5440,106.9822,0,U,65094,999,590,.50844846E-1,.2686719E-1,0
STARLINK-34768,2025-167T,2026-06-09T14:00:04.000032,15.49332220,.00011904,53.1594,315.9275,71.7881,299.5265,0,U,65095,999,585,-.12213747E-3,-.724E-4,0
STARLINK-34759,2025-167U,2026-06-09T14:00:04.000032,15.49331680,.00010826,53.1594,315.9055,69.0007,313.1673,0,U,65096,999,590,-.11394389E-3,-.6785E-4,0
STARLINK-34741,2025-167V,2026-06-08T22:02:41.195904,15.49327580,.00012432,53.1597,318.9085,110.7305,249.3837,0,U,65097,999,4750,.95524933E-3,.53075E-3,0
STARLINK-34764,2025-167W,2026-06-09T04:06:46.541664,15.34404387,.00017728,53.1626,320.4944,74.6549,285.4649,0,U,65098,999,4750,.6254841E-3,.20818E-3,0
STARLINK-34815,2025-167X,2026-06-09T03:57:41.220288,15.34400727,.00014464,53.1611,320.4547,66.8272,293.2883,0,U,65099,999,4750,.89636957E-3,.30031E-3,0
STARLINK-34814,2025-167Y,2026-06-08T17:28:23.505312,15.34406702,.00017898,53.1604,322.7001,99.2640,260.8565,0,U,65100,999,4743,.74169156E-3,.24771E-3,0
STARLINK-34285,2025-167Z,2026-06-09T03:21:27.068832,15.34399135,.0001168,53.1591,321.0039,75.6385,284.4747,0,U,65101,999,4749,.10338626E-2,.34715E-3,0
STARLINK-34857,2025-167AA,2026-06-09T12:34:17.096736,15.47136081,.00002187,53.1592,315.5742,314.6670,45.4321,0,U,65102,999,4759,-.61865393E-2,-.307054E-2,0
STARLINK-34887,2025-167AB,2026-06-09T03:30:32.239008,15.34422659,.00005592,53.1590,321.0413,54.7639,305.3416,0,U,65103,999,4749,.10363663E-2,.34827E-3,0
STARLINK-34481,2025-167AC,2026-06-09T14:00:04.000032,15.49296747,.00011094,53.1587,315.2523,99.1894,251.8222,0,U,65104,999,585,.11659053E-3,.6038E-4,0
STARLINK-34545,2025-167AD,2026-06-09T03:13:21.007488,15.49385515,.00015102,53.1599,317.4110,247.9744,112.1105,0,U,65105,999,4754,.13891359E-2,.77793E-3,0
